{
  "type": "FeatureCollection",
  "features": [
    {
      "type": "Feature",
      "properties": {
        "norad_id": 36744,
        "name": "COMS 1",
        "group": "weather",
        "lat": -3.693385066167663,
        "lon": -43.62501743062207,
        "alt_km": 35783.86181142105,
        "timestamp": "2025-12-06T07:31:39.887582+00:00",
        "meta_object_name": "COMS 1",
        "meta_object_id": "2010-032A",
        "meta_epoch": "2025-12-05T05:44:42.026784",
        "meta_mean_motion": 1.00271786,
        "meta_eccentricity": 0.00011661,
        "meta_inclination": 4.322,
        "meta_ra_of_asc_node": 78.0821,
        "meta_arg_of_pericenter": 183.7843,
        "meta_mean_anomaly": 26.7761,
        "meta_ephemeris_type": 0,
        "meta_classification_type": "U",
        "meta_norad_cat_id": 36744,
        "meta_element_set_no": 999,
        "meta_rev_at_epoch": 4914,
        "meta_bstar": 0,
        "meta_mean_motion_dot": -3.35e-06,
        "meta_mean_motion_ddot": 0,
        "tle_line1": "1 36744U 10032A   25339.23937531 -.00000335  00000+0  00000+0 0  9995",
        "tle_line2": "2 36744   4.3220  78.0821 0001166 183.7843  26.7761  1.00271786 49140"
      },
      "geometry": {
        "type": "Point",
        "coordinates": [
          -43.62501743062207,
          -3.693385066167663
        ]
      }
    },
    {
      "type": "Feature",
      "properties": {
        "norad_id": 37214,
        "name": "FENGYUN 3B",
        "group": "weather",
        "lat": 78.98824238919397,
        "lon": -34.212781140134915,
        "alt_km": 829.5077054764906,
        "timestamp": "2025-12-06T07:31:39.887594+00:00",
        "meta_object_name": "FENGYUN 3B",
        "meta_object_id": "2010-059A",
        "meta_epoch": "2025-12-05T07:41:25.181376",
        "meta_mean_motion": 14.14786554,
        "meta_eccentricity": 0.00223582,
        "meta_inclination": 98.9919,
        "meta_ra_of_asc_node": 19.2457,
        "meta_arg_of_pericenter": 18.7151,
        "meta_mean_anomaly": 48.7677,
        "meta_ephemeris_type": 0,
        "meta_classification_type": "U",
        "meta_norad_cat_id": 37214,
        "meta_element_set_no": 999,
        "meta_rev_at_epoch": 78001,
        "meta_bstar": 0.00013076553,
        "meta_mean_motion_dot": 2.07e-06,
        "meta_mean_motion_ddot": 0,
        "tle_line1": "1 37214U 10059A   25339.32043034  .00000207  00000+0  13077-3 0  9992",
        "tle_line2": "2 37214  98.9919  19.2457 0022358  18.7151  48.7677 14.14786554780015"
      },
      "geometry": {
        "type": "Point",
        "coordinates": [
          -34.212781140134915,
          78.98824238919397
        ]
      }
    },
    {
      "type": "Feature",
      "properties": {
        "norad_id": 37849,
        "name": "SUOMI NPP",
        "group": "weather",
        "lat": 4.650945393259551,
        "lon": 98.43336132595311,
        "alt_km": 828.2773808391312,
        "timestamp": "2025-12-06T07:31:39.887605+00:00",
        "meta_object_name": "SUOMI NPP",
        "meta_object_id": "2011-061A",
        "meta_epoch": "2025-12-05T07:01:18.630336",
        "meta_mean_motion": 14.19510854,
        "meta_eccentricity": 0.00019751,
        "meta_inclination": 98.7762,
        "meta_ra_of_asc_node": 276.7017,
        "meta_arg_of_pericenter": 133.5006,
        "meta_mean_anomaly": 226.6335,
        "meta_ephemeris_type": 0,
        "meta_classification_type": "U",
        "meta_norad_cat_id": 37849,
        "meta_element_set_no": 999,
        "meta_rev_at_epoch": 73093,
        "meta_bstar": 0.00011311915,
        "meta_mean_motion_dot": 1.94e-06,
        "meta_mean_motion_ddot": 0,
        "tle_line1": "1 37849U 11061A   25339.29257674  .00000194  00000+0  11312-3 0  9998",
        "tle_line2": "2 37849  98.7762 276.7017 0001975 133.5006 226.6335 14.19510854730939"
      },
      "geometry": {
        "type": "Point",
        "coordinates": [
          98.43336132595311,
          4.650945393259551
        ]
      }
    },
    {
      "type": "Feature",
      "properties": {
        "norad_id": 38552,
        "name": "METEOSAT-10 (MSG-3)",
        "group": "weather",
        "lat": 3.367821565478375,
        "lon": -171.55010791642638,
        "alt_km": 35785.75122594734,
        "timestamp": "2025-12-06T07:31:39.887617+00:00",
        "meta_object_name": "METEOSAT-10 (MSG-3)",
        "meta_object_id": "2012-035B",
        "meta_epoch": "2025-12-04T23:59:58.795584",
        "meta_mean_motion": 1.00272703,
        "meta_eccentricity": 8.394e-05,
        "meta_inclination": 4.2096,
        "meta_ra_of_asc_node": 61.7352,
        "meta_arg_of_pericenter": 223.7318,
        "meta_mean_anomaly": 148.7027,
        "meta_ephemeris_type": 0,
        "meta_classification_type": "U",
        "meta_norad_cat_id": 38552,
        "meta_element_set_no": 999,
        "meta_rev_at_epoch": 4891,
        "meta_bstar": 0,
        "meta_mean_motion_dot": 4e-08,
        "meta_mean_motion_ddot": 0,
        "tle_line1": "1 38552U 12035B   25338.99998606  .00000004  00000+0  00000+0 0  9993",
        "tle_line2": "2 38552   4.2096  61.7352 0000839 223.7318 148.7027  1.00272703 48919"
      },
      "geometry": {
        "type": "Point",
        "coordinates": [
          -171.55010791642638,
          3.367821565478375
        ]
      }
    },
    {
      "type": "Feature",
      "properties": {
        "norad_id": 38771,
        "name": "METOP-B",
        "group": "weather",
        "lat": -16.23304795554347,
        "lon": 32.93054251192051,
        "alt_km": 827.2233341162919,
        "timestamp": "2025-12-06T07:31:39.887630+00:00",
        "meta_object_name": "METOP-B",
        "meta_object_id": "2012-049A",
        "meta_epoch": "2025-12-05T06:15:48.603744",
        "meta_mean_motion": 14.21404133,
        "meta_eccentricity": 0.00025799,
        "meta_inclination": 98.681,
        "meta_ra_of_asc_node": 29.3462,
        "meta_arg_of_pericenter": 160.9019,
        "meta_mean_anomaly": 199.2255,
        "meta_ephemeris_type": 0,
        "meta_classification_type": "U",
        "meta_norad_cat_id": 38771,
        "meta_element_set_no": 999,
        "meta_rev_at_epoch": 68571,
        "meta_bstar": 0.00015394109,
        "meta_mean_motion_dot": 2.93e-06,
        "meta_mean_motion_ddot": 0,
        "tle_line1": "1 38771U 12049A   25339.26097921  .00000293  00000+0  15394-3 0  9998",
        "tle_line2": "2 38771  98.6810  29.3462 0002579 160.9019 199.2255 14.21404133685718"
      },
      "geometry": {
        "type": "Point",
        "coordinates": [
          32.93054251192051,
          -16.23304795554347
        ]
      }
    },
    {
      "type": "Feature",
      "properties": {
        "norad_id": 39216,
        "name": "INSAT-3D",
        "group": "weather",
        "lat": -1.1442421580087374,
        "lon": -42.18903201761082,
        "alt_km": 35784.09764054741,
        "timestamp": "2025-12-06T07:31:39.887642+00:00",
        "meta_object_name": "INSAT-3D",
        "meta_object_id": "2013-038B",
        "meta_epoch": "2025-12-05T05:45:11.979072",
        "meta_mean_motion": 1.00272929,
        "meta_eccentricity": 0.00017752,
        "meta_inclination": 1.4242,
        "meta_ra_of_asc_node": 85.0772,
        "meta_arg_of_pericenter": 157.7402,
        "meta_mean_anomaly": 47.3138,
        "meta_ephemeris_type": 0,
        "meta_classification_type": "U",
        "meta_norad_cat_id": 39216,
        "meta_element_set_no": 999,
        "meta_rev_at_epoch": 4513,
        "meta_bstar": 0,
        "meta_mean_motion_dot": -3.27e-06,
        "meta_mean_motion_ddot": 0,
        "tle_line1": "1 39216U 13038B   25339.23972198 -.00000327  00000+0  00000+0 0  9990",
        "tle_line2": "2 39216   1.4242  85.0772 0001775 157.7402  47.3138  1.00272929 45132"
      },
      "geometry": {
        "type": "Point",
        "coordinates": [
          -42.18903201761082,
          -1.1442421580087374
        ]
      }
    },
    {
      "type": "Feature",
      "properties": {
        "norad_id": 39260,
        "name": "FENGYUN 3C",
        "group": "weather",
        "lat": 2.7103076412891287,
        "lon": -42.09750887536351,
        "alt_km": 850.9685738175849,
        "timestamp": "2025-12-06T07:31:39.887654+00:00",
        "meta_object_name": "FENGYUN 3C",
        "meta_object_id": "2013-052A",
        "meta_epoch": "2025-12-05T06:04:16.176864",
        "meta_mean_motion": 14.15692805,
        "meta_eccentricity": 0.00139066,
        "meta_inclination": 98.4755,
        "meta_ra_of_asc_node": 317.2982,
        "meta_arg_of_pericenter": 218.4549,
        "meta_mean_anomaly": 141.5636,
        "meta_ephemeris_type": 0,
        "meta_classification_type": "U",
        "meta_norad_cat_id": 39260,
        "meta_element_set_no": 999,
        "meta_rev_at_epoch": 63112,
        "meta_bstar": 0.00013759429,
        "meta_mean_motion_dot": 2.29e-06,
        "meta_mean_motion_ddot": 0,
        "tle_line1": "1 39260U 13052A   25339.25296501  .00000229  00000+0  13759-3 0  9993",
        "tle_line2": "2 39260  98.4755 317.2982 0013906 218.4549 141.5636 14.15692805631124"
      },
      "geometry": {
        "type": "Point",
        "coordinates": [
          -42.09750887536351,
          2.7103076412891287
        ]
      }
    }
  ]
}